CCSDS_OMM_VERS = 2.0
CREATION_DATE  = 
ORIGINATOR     = 

OBJECT_NAME    = ATLAS CENTAUR R/B
OBJECT_ID      = 1972-065B
CENTER_NAME    = EARTH
REF_FRAME      = TEME
TIME_SYSTEM    = UTC
MEAN_ELEMENT_THEORY = SGP/SGP4

EPOCH          = 2026-03-13T21:10:59.111904
MEAN_MOTION    = 14.77700357
ECCENTRICITY   = .00331135
INCLINATION    = 35.0010
RA_OF_ASC_NODE = 281.1817
ARG_OF_PERICENTER = 44.4019
MEAN_ANOMALY   = 315.9329

EPHEMERIS_TYPE = 0
CLASSIFICATION_TYPE = U
NORAD_CAT_ID   = 6155
ELEMENT_SET_NO = 999
REV_AT_EPOCH   = 84188
BSTAR          = .20556105E-3
MEAN_MOTION_DOT = .1486E-4
MEAN_MOTION_DDOT = 0

CCSDS_OMM_VERS = 2.0
CREATION_DATE  = 
ORIGINATOR     = 

OBJECT_NAME    = SL-8 R/B
OBJECT_ID      = 1975-112B
CENTER_NAME    = EARTH
REF_FRAME      = TEME
TIME_SYSTEM    = UTC
MEAN_ELEMENT_THEORY = SGP/SGP4

EPOCH          = 2026-03-13T22:55:01.150752
MEAN_MOTION    = 14.38206445
ECCENTRICITY   = .00144324
INCLINATION    = 74.0634
RA_OF_ASC_NODE = 11.0665
ARG_OF_PERICENTER = 102.4699
MEAN_ANOMALY   = 257.8071

EPHEMERIS_TYPE = 0
CLASSIFICATION_TYPE = U
NORAD_CAT_ID   = 8459
ELEMENT_SET_NO = 999
REV_AT_EPOCH   = 63248
BSTAR          = .95650058E-4
MEAN_MOTION_DOT = .265E-5
MEAN_MOTION_DDOT = 0

CCSDS_OMM_VERS = 2.0
CREATION_DATE  = 
ORIGINATOR     = 

OBJECT_NAME    = SL-3 R/B
OBJECT_ID      = 1977-057B
CENTER_NAME    = EARTH
REF_FRAME      = TEME
TIME_SYSTEM    = UTC
MEAN_ELEMENT_THEORY = SGP/SGP4

EPOCH          = 2026-03-13T22:15:20.541312
MEAN_MOTION    = 15.45624338
ECCENTRICITY   = .00061601
INCLINATION    = 97.5778
RA_OF_ASC_NODE = 245.0349
ARG_OF_PERICENTER = 266.7031
MEAN_ANOMALY   = 93.3513

EPHEMERIS_TYPE = 0
CLASSIFICATION_TYPE = U
NORAD_CAT_ID   = 10114
ELEMENT_SET_NO = 999
REV_AT_EPOCH   = 66898
BSTAR          = .31053471E-3
MEAN_MOTION_DOT = .14879E-3
MEAN_MOTION_DDOT = 0

CCSDS_OMM_VERS = 2.0
CREATION_DATE  = 
ORIGINATOR     = 

OBJECT_NAME    = SEASAT 1
OBJECT_ID      = 1978-064A
CENTER_NAME    = EARTH
REF_FRAME      = TEME
TIME_SYSTEM    = UTC
MEAN_ELEMENT_THEORY = SGP/SGP4

EPOCH          = 2026-03-13T22:09:18.622944
MEAN_MOTION    = 14.46163930
ECCENTRICITY   = .00023777
INCLINATION    = 108.0101
RA_OF_ASC_NODE = 134.3832
ARG_OF_PERICENTER = 284.3042
MEAN_ANOMALY   = 75.7840

EPHEMERIS_TYPE = 0
CLASSIFICATION_TYPE = U
NORAD_CAT_ID   = 10967
ELEMENT_SET_NO = 999
REV_AT_EPOCH   = 50712
BSTAR          = .1113705E-3
MEAN_MOTION_DOT = .261E-5
MEAN_MOTION_DDOT = 0

CCSDS_OMM_VERS = 2.0
CREATION_DATE  = 
ORIGINATOR     = 

OBJECT_NAME    = SL-14 R/B
OBJECT_ID      = 1979-011B
CENTER_NAME    = EARTH
REF_FRAME      = TEME
TIME_SYSTEM    = UTC
MEAN_ELEMENT_THEORY = SGP/SGP4

EPOCH          = 2026-03-13T11:17:34.116000
MEAN_MOTION    = 14.91913438
ECCENTRICITY   = .00172005
INCLINATION    = 82.5205
RA_OF_ASC_NODE = 92.9822
ARG_OF_PERICENTER = 48.8388
MEAN_ANOMALY   = 311.4312

EPHEMERIS_TYPE = 0
CLASSIFICATION_TYPE = U
NORAD_CAT_ID   = 11267
ELEMENT_SET_NO = 999
REV_AT_EPOCH   = 52934
BSTAR          = .65949619E-4
MEAN_MOTION_DOT = .694E-5
MEAN_MOTION_DDOT = 0

CCSDS_OMM_VERS = 2.0
CREATION_DATE  = 
ORIGINATOR     = 

OBJECT_NAME    = SL-8 R/B
OBJECT_ID      = 1979-089B
CENTER_NAME    = EARTH
REF_FRAME      = TEME
TIME_SYSTEM    = UTC
MEAN_ELEMENT_THEORY = SGP/SGP4

EPOCH          = 2026-03-13T10:07:02.086752
MEAN_MOTION    = 14.42353288
ECCENTRICITY   = .00171143
INCLINATION    = 74.0667
RA_OF_ASC_NODE = 84.1345
ARG_OF_PERICENTER = 256.4414
MEAN_ANOMALY   = 103.4836

EPHEMERIS_TYPE = 0
CLASSIFICATION_TYPE = U
NORAD_CAT_ID   = 11574
ELEMENT_SET_NO = 999
REV_AT_EPOCH   = 43664
BSTAR          = .10292592E-3
MEAN_MOTION_DOT = .314E-5
MEAN_MOTION_DDOT = 0

CCSDS_OMM_VERS = 2.0
CREATION_DATE  = 
ORIGINATOR     = 

OBJECT_NAME    = SL-14 R/B
OBJECT_ID      = 1980-005B
CENTER_NAME    = EARTH
REF_FRAME      = TEME
TIME_SYSTEM    = UTC
MEAN_ELEMENT_THEORY = SGP/SGP4

EPOCH          = 2026-03-13T21:19:46.142400
MEAN_MOTION    = 14.90935557
ECCENTRICITY   = .00165221
INCLINATION    = 82.5137
RA_OF_ASC_NODE = 303.2531
ARG_OF_PERICENTER = 144.8431
MEAN_ANOMALY   = 215.3882

EPHEMERIS_TYPE = 0
CLASSIFICATION_TYPE = U
NORAD_CAT_ID   = 11672
ELEMENT_SET_NO = 999
REV_AT_EPOCH   = 47711
BSTAR          = .5959948E-4
MEAN_MOTION_DOT = .615E-5
MEAN_MOTION_DDOT = 0

CCSDS_OMM_VERS = 2.0
CREATION_DATE  = 
ORIGINATOR     = 

OBJECT_NAME    = SL-8 R/B
OBJECT_ID      = 1981-003B
CENTER_NAME    = EARTH
REF_FRAME      = TEME
TIME_SYSTEM    = UTC
MEAN_ELEMENT_THEORY = SGP/SGP4

EPOCH          = 2026-03-13T23:22:44.851008
MEAN_MOTION    = 15.11151671
ECCENTRICITY   = .02617374
INCLINATION    = 82.9384
RA_OF_ASC_NODE = 286.0622
ARG_OF_PERICENTER = 163.7107
MEAN_ANOMALY   = 197.2747

EPHEMERIS_TYPE = 0
CLASSIFICATION_TYPE = U
NORAD_CAT_ID   = 12139
ELEMENT_SET_NO = 999
REV_AT_EPOCH   = 31532
BSTAR          = .57125469E-3
MEAN_MOTION_DOT = .22366E-3
MEAN_MOTION_DDOT = 0

CCSDS_OMM_VERS = 2.0
CREATION_DATE  = 
ORIGINATOR     = 

OBJECT_NAME    = SL-3 R/B
OBJECT_ID      = 1981-046B
CENTER_NAME    = EARTH
REF_FRAME      = TEME
TIME_SYSTEM    = UTC
MEAN_ELEMENT_THEORY = SGP/SGP4

EPOCH          = 2026-03-13T22:29:48.281568
MEAN_MOTION    = 15.42110535
ECCENTRICITY   = .00192128
INCLINATION    = 81.2296
RA_OF_ASC_NODE = 284.6429
ARG_OF_PERICENTER = 7.6746
MEAN_ANOMALY   = 352.4787

EPHEMERIS_TYPE = 0
CLASSIFICATION_TYPE = U
NORAD_CAT_ID   = 12465
ELEMENT_SET_NO = 999
REV_AT_EPOCH   = 43908
BSTAR          = .32907636E-3
MEAN_MOTION_DOT = .14207E-3
MEAN_MOTION_DDOT = 0

CCSDS_OMM_VERS = 2.0
CREATION_DATE  = 
ORIGINATOR     = 

OBJECT_NAME    = SL-3 R/B
OBJECT_ID      = 1981-103B
CENTER_NAME    = EARTH
REF_FRAME      = TEME
TIME_SYSTEM    = UTC
MEAN_ELEMENT_THEORY = SGP/SGP4

EPOCH          = 2026-03-13T21:58:40.873440
MEAN_MOTION    = 15.21433923
ECCENTRICITY   = .00123584
INCLINATION    = 81.1588
RA_OF_ASC_NODE = 208.4744
ARG_OF_PERICENTER = 271.5104
MEAN_ANOMALY   = 88.4712

EPHEMERIS_TYPE = 0
CLASSIFICATION_TYPE = U
NORAD_CAT_ID   = 12904
ELEMENT_SET_NO = 999
REV_AT_EPOCH   = 97387
BSTAR          = .31777506E-3
MEAN_MOTION_DOT = .7174E-4
MEAN_MOTION_DDOT = 0

CCSDS_OMM_VERS = 2.0
CREATION_DATE  = 
ORIGINATOR     = 

OBJECT_NAME    = SL-3 R/B
OBJECT_ID      = 1982-013B
CENTER_NAME    = EARTH
REF_FRAME      = TEME
TIME_SYSTEM    = UTC
MEAN_ELEMENT_THEORY = SGP/SGP4

EPOCH          = 2026-03-13T22:07:46.824672
MEAN_MOTION    = 15.22060968
ECCENTRICITY   = .0022855
INCLINATION    = 81.1758
RA_OF_ASC_NODE = 155.8105
ARG_OF_PERICENTER = 163.1775
MEAN_ANOMALY   = 197.0221

EPHEMERIS_TYPE = 0
CLASSIFICATION_TYPE = U
NORAD_CAT_ID   = 13068
ELEMENT_SET_NO = 999
REV_AT_EPOCH   = 40499
BSTAR          = .2077637E-3
MEAN_MOTION_DOT = .4811E-4
MEAN_MOTION_DDOT = 0

CCSDS_OMM_VERS = 2.0
CREATION_DATE  = 
ORIGINATOR     = 

OBJECT_NAME    = SL-3 R/B
OBJECT_ID      = 1982-039B
CENTER_NAME    = EARTH
REF_FRAME      = TEME
TIME_SYSTEM    = UTC
MEAN_ELEMENT_THEORY = SGP/SGP4

EPOCH          = 2026-03-13T21:32:26.512512
MEAN_MOTION    = 15.10108606
ECCENTRICITY   = .00295405
INCLINATION    = 81.1576
RA_OF_ASC_NODE = 211.1107
ARG_OF_PERICENTER = 310.7122
MEAN_ANOMALY   = 49.1537

EPHEMERIS_TYPE = 0
CLASSIFICATION_TYPE = U
NORAD_CAT_ID   = 13154
ELEMENT_SET_NO = 999
REV_AT_EPOCH   = 38227
BSTAR          = .18930284E-3
MEAN_MOTION_DOT = .3138E-4
MEAN_MOTION_DDOT = 0

