ATLAS CENTAUR R/B       
1 06155U 72065B   26072.88262861  .00001486  00000+0  20556-3 0  9994
2 06155  35.0010 281.1817 0033113  44.4019 315.9329 14.77700357841881
SL-8 R/B                
1 08459U 75112B   26072.95487443  .00000265  00000+0  95650-4 0  9994
2 08459  74.0634  11.0665 0014432 102.4699 257.8071 14.38206445632486
SL-3 R/B                
1 10114U 77057B   26072.92732108  .00014879  00000+0  31053-3 0  9995
2 10114  97.5778 245.0349 0006160 266.7031  93.3513 15.45624338668989
SEASAT 1                
1 10967U 78064A   26072.92313221  .00000261  00000+0  11137-3 0  9992
2 10967 108.0101 134.3832 0002377 284.3042  75.7840 14.46163930507125
SL-14 R/B               
1 11267U 79011B   26072.47053375  .00000694  00000+0  65950-4 0  9993
2 11267  82.5205  92.9822 0017200  48.8388 311.4312 14.91913438529343
SL-8 R/B                
1 11574U 79089B   26072.42155193  .00000314  00000+0  10293-3 0  9993
2 11574  74.0667  84.1345 0017114 256.4414 103.4836 14.42353288436643
SL-14 R/B               
1 11672U 80005B   26072.88872850  .00000615  00000+0  59599-4 0  9995
2 11672  82.5137 303.2531 0016522 144.8431 215.3882 14.90935557477110
SL-8 R/B                
1 12139U 81003B   26072.97413022  .00022366  00000+0  57125-3 0  9994
2 12139  82.9384 286.0622 0261737 163.7107 197.2747 15.11151671315329
SL-3 R/B                
1 12465U 81046B   26072.93736437  .00014207  00000+0  32908-3 0  9994
2 12465  81.2296 284.6429 0019212   7.6746 352.4787 15.42110535439085
SL-3 R/B                
1 12904U 81103B   26072.91575085  .00007174  00000+0  31778-3 0  9993
2 12904  81.1588 208.4744 0012358 271.5104  88.4712 15.21433923973874
SL-3 R/B                
1 13068U 82013B   26072.92206973  .00004811  00000+0  20776-3 0  9995
2 13068  81.1758 155.8105 0022855 163.1775 197.0221 15.22060968404994
SL-3 R/B                
1 13154U 82039B   26072.89752908  .00003138  00000+0  18930-3 0  9999
2 13154  81.1576 211.1107 0029540 310.7122  49.1537 15.10108606382272
